{"type": "FeatureCollection", "features": [ {"type": "Feature", "properties": {"norad_id": 60989, "name": "SENTINEL-2C", "group": "resource", "lat": 71.76709438404454, "lon": 46.270682880069806, "alt_km": 781.1946565474345, "timestamp": "2025-12-27T05:29:38.852158+00:00", "meta": {"OBJECT_NAME": "SENTINEL-2C", "OBJECT_ID": "2024-157A", "EPOCH": "2025-12-26T22:26:13.261344", "MEAN_MOTION": 14.30818312, "ECCENTRICITY": 0.00013552, "INCLINATION": 98.5665, "RA_OF_ASC_NODE": 73.2118, "ARG_OF_PERICENTER": 102.1348, "MEAN_ANOMALY": 257.9986, "EPHEMERIS_TYPE": 0, "CLASSIFICATION_TYPE": "U", "NORAD_CAT_ID": 60989, "ELEMENT_SET_NO": 999, "REV_AT_EPOCH": 6835, "BSTAR": 8.9389669e-05, "MEAN_MOTION_DOT": 1.91e-06, "MEAN_MOTION_DDOT": 0}, "tle": {"line1": "1 60989U 24157A   25360.93487571  .00000191  00000+0  89390-4 0  9994", "line2": "2 60989  98.5665  73.2118 0001355 102.1348 257.9986 14.30818312 68357"}}, "geometry": {"type": "Point", "coordinates": [46.270682880069806, 71.76709438404454]}}, {"type": "Feature", "properties": {"norad_id": 61735, "name": "IONOSFERA-M 1", "group": "resource", "lat": -77.92684130458572, "lon": -83.04856337735482, "alt_km": 823.4675531433822, "timestamp": "2025-12-27T05:29:38.852169+00:00", "meta": {"OBJECT_NAME": "IONOSFERA-M 1", "OBJECT_ID": "2024-199A", "EPOCH": "2025-12-26T23:07:33.244608", "MEAN_MOTION": 14.22717239, "ECCENTRICITY": 2.537e-05, "INCLINATION": 98.7395, "RA_OF_ASC_NODE": 230.7019, "ARG_OF_PERICENTER": 1.4872, "MEAN_ANOMALY": 358.6306, "EPHEMERIS_TYPE": 0, "CLASSIFICATION_TYPE": "U", "NORAD_CAT_ID": 61735, "ELEMENT_SET_NO": 999, "REV_AT_EPOCH": 10321, "BSTAR": 5.1208453e-05, "MEAN_MOTION_DOT": 7e-07, "MEAN_MOTION_DDOT": 0}, "tle": {"line1": "1 61735U 24199A   25360.96357922  .00000070  00000+0  51208-4 0  9992", "line2": "2 61735  98.7395 230.7019 0000253   1.4872 358.6306 14.22717239103215"}}, "geometry": {"type": "Point", "coordinates": [-83.04856337735482, -77.92684130458572]}}, {"type": "Feature", "properties": {"norad_id": 61736, "name": "IONOSFERA-M 2", "group": "resource", "lat": 75.84146903845992, "lon": 88.44952590259823, "alt_km": 807.6306383185647, "timestamp": "2025-12-27T05:29:38.852179+00:00", "meta": {"OBJECT_NAME": "IONOSFERA-M 2", "OBJECT_ID": "2024-199B", "EPOCH": "2025-12-26T22:16:08.627232", "MEAN_MOTION": 14.22719408, "ECCENTRICITY": 0.00018759, "INCLINATION": 98.7394, "RA_OF_ASC_NODE": 230.5788, "ARG_OF_PERICENTER": 92.2504, "MEAN_ANOMALY": 267.8889, "EPHEMERIS_TYPE": 0, "CLASSIFICATION_TYPE": "U", "NORAD_CAT_ID": 61736, "ELEMENT_SET_NO": 999, "REV_AT_EPOCH": 10633, "BSTAR": 5.5038876e-05, "MEAN_MOTION_DOT": 7.9e-07, "MEAN_MOTION_DDOT": 0}, "tle": {"line1": "1 61736U 24199B   25360.92787763  .00000079  00000+0  55039-4 0  9994", "line2": "2 61736  98.7394 230.5788 0001875  92.2504 267.8889 14.22719408106330"}}, "geometry": {"type": "Point", "coordinates": [88.44952590259823, 75.84146903845992]}}, {"type": "Feature", "properties": {"norad_id": 63772, "name": "BIOMASS", "group": "resource", "lat": 70.98912132476534, "lon": 30.344338041120093, "alt_km": 661.3619615295784, "timestamp": "2025-12-27T05:29:38.852189+00:00", "meta": {"OBJECT_NAME": "BIOMASS", "OBJECT_ID": "2025-090A", "EPOCH": "2025-12-26T12:38:37.094208", "MEAN_MOTION": 14.67541844, "ECCENTRICITY": 0.0001081, "INCLINATION": 98.0698, "RA_OF_ASC_NODE": 185.3355, "ARG_OF_PERICENTER": 85.3818, "MEAN_ANOMALY": 274.751, "EPHEMERIS_TYPE": 0, "CLASSIFICATION_TYPE": "U", "NORAD_CAT_ID": 63772, "ELEMENT_SET_NO": 999, "REV_AT_EPOCH": 3536, "BSTAR": 0.00022694, "MEAN_MOTION_DOT": 1.239e-05, "MEAN_MOTION_DDOT": 0}, "tle": {"line1": "1 63772U 25090A   25360.52681822  .00001239  00000+0  22694-3 0  9991", "line2": "2 63772  98.0698 185.3355 0001081  85.3818 274.7510 14.67541844 35367"}}, "geometry": {"type": "Point", "coordinates": [30.344338041120093, 70.98912132476534]}}, {"type": "Feature", "properties": {"norad_id": 64694, "name": "GOSAT-GW (IBUKI GW)", "group": "resource", "lat": -41.55467897381569, "lon": -56.318269931620556, "alt_km": 675.9920497676449, "timestamp": "2025-12-27T05:29:38.852200+00:00", "meta": {"OBJECT_NAME": "GOSAT-GW (IBUKI GW)", "OBJECT_ID": "2025-141A", "EPOCH": "2025-12-26T23:08:24.232704", "MEAN_MOTION": 14.67564798, "ECCENTRICITY": 0.00014235, "INCLINATION": 98.0441, "RA_OF_ASC_NODE": 296.2203, "ARG_OF_PERICENTER": 82.099, "MEAN_ANOMALY": 278.0376, "EPHEMERIS_TYPE": 0, "CLASSIFICATION_TYPE": "U", "NORAD_CAT_ID": 64694, "ELEMENT_SET_NO": 999, "REV_AT_EPOCH": 2658, "BSTAR": 0.00022516974, "MEAN_MOTION_DOT": 1.23e-05, "MEAN_MOTION_DDOT": 0}, "tle": {"line1": "1 64694U 25141A   25360.96416936  .00001230  00000+0  22517-3 0  9997", "line2": "2 64694  98.0441 296.2203 0001423  82.0990 278.0376 14.67564798 26580"}}, "geometry": {"type": "Point", "coordinates": [-56.318269931620556, -41.55467897381569]}}, {"type": "Feature", "properties": {"norad_id": 64876, "name": "IONOSFERA-M 3", "group": "resource", "lat": 75.91087029944812, "lon": -74.29500150253938, "alt_km": 812.3276254988796, "timestamp": "2025-12-27T05:29:38.852210+00:00", "meta": {"OBJECT_NAME": "IONOSFERA-M 3", "OBJECT_ID": "2025-155A", "EPOCH": "2025-12-27T00:03:24.617664", "MEAN_MOTION": 14.21444603, "ECCENTRICITY": 0.00017685, "INCLINATION": 98.5802, "RA_OF_ASC_NODE": 322.4661, "ARG_OF_PERICENTER": 36.6882, "MEAN_ANOMALY": 323.4416, "EPHEMERIS_TYPE": 0, "CLASSIFICATION_TYPE": "U", "NORAD_CAT_ID": 64876, "ELEMENT_SET_NO": 999, "REV_AT_EPOCH": 2194, "BSTAR": 7.2910475e-05, "MEAN_MOTION_DOT": 1.17e-06, "MEAN_MOTION_DDOT": 0}, "tle": {"line1": "1 64876U 25155A   25361.00236826  .00000117  00000+0  72910-4 0  9994", "line2": "2 64876  98.5802 322.4661 0001768  36.6882 323.4416 14.21444603 21942"}}, "geometry": {"type": "Point", "coordinates": [-74.29500150253938, 75.91087029944812]}}, {"type": "Feature", "properties": {"norad_id": 64877, "name": "IONOSFERA-M 4", "group": "resource", "lat": -76.48770496946256, "lon": 103.68194249302825, "alt_km": 828.5442435850355, "timestamp": "2025-12-27T05:29:38.852221+00:00", "meta": {"OBJECT_NAME": "IONOSFERA-M 4", "OBJECT_ID": "2025-155B", "EPOCH": "2025-12-26T23:12:31.632192", "MEAN_MOTION": 14.21445772, "ECCENTRICITY": 0.00012256, "INCLINATION": 98.5803, "RA_OF_ASC_NODE": 322.3511, "ARG_OF_PERICENTER": 50.605, "MEAN_ANOMALY": 309.5237, "EPHEMERIS_TYPE": 0, "CLASSIFICATION_TYPE": "U", "NORAD_CAT_ID": 64877, "ELEMENT_SET_NO": 999, "REV_AT_EPOCH": 2193, "BSTAR": 7.316352e-05, "MEAN_MOTION_DOT": 1.17e-06, "MEAN_MOTION_DDOT": 0}, "tle": {"line1": "1 64877U 25155B   25360.96703278  .00000117  00000+0  73164-4 0  9991", "line2": "2 64877  98.5803 322.3511 0001225  50.6050 309.5237 14.21445772 21931"}}, "geometry": {"type": "Point", "coordinates": [103.68194249302825, -76.48770496946256]}}, {"type": "Feature", "properties": {"norad_id": 64899, "name": "MICROCARB", "group": "resource", "lat": 9.175019927889926, "lon": -102.35721301598643, "alt_km": 651.7461000812973, "timestamp": "2025-12-27T05:29:38.852232+00:00", "meta": {"OBJECT_NAME": "MICROCARB", "OBJECT_ID": "2025-156A", "EPOCH": "2025-12-26T22:11:52.679328", "MEAN_MOTION": 14.72080413, "ECCENTRICITY": 0.00176706, "INCLINATION": 98.0009, "RA_OF_ASC_NODE": 76.042, "ARG_OF_PERICENTER": 102.3333, "MEAN_ANOMALY": 257.9854, "EPHEMERIS_TYPE": 0, "CLASSIFICATION_TYPE": "U", "NORAD_CAT_ID": 64899, "ELEMENT_SET_NO": 999, "REV_AT_EPOCH": 2262, "BSTAR": 0.00014636085, "MEAN_MOTION_DOT": 8.73e-06, "MEAN_MOTION_DDOT": 0}, "tle": {"line1": "1 64899U 25156A   25360.92491527  .00000873  00000+0  14636-3 0  9990", "line2": "2 64899  98.0009  76.0420 0017670 102.3333 257.9854 14.72080413 22621"}}, "geometry": {"type": "Point", "coordinates": [-102.35721301598643, 9.175019927889926]}}, {"type": "Feature", "properties": {"norad_id": 64900, "name": "CO3D 3", "group": "resource", "lat": -18.255451719945523, "lon": -105.08020389733885, "alt_km": 510.92180411809295, "timestamp": "2025-12-27T05:29:38.852242+00:00", "meta": {"OBJECT_NAME": "CO3D 3", "OBJECT_ID": "2025-156B", "EPOCH": "2025-12-26T23:53:07.493568", "MEAN_MOTION": 15.20210664, "ECCENTRICITY": 0.0001293, "INCLINATION": 97.4345, "RA_OF_ASC_NODE": 77.1581, "ARG_OF_PERICENTER": 66.9579, "MEAN_ANOMALY": 293.1793, "EPHEMERIS_TYPE": 0, "CLASSIFICATION_TYPE": "U", "NORAD_CAT_ID": 64900, "ELEMENT_SET_NO": 999, "REV_AT_EPOCH": 2337, "BSTAR": 2.1573252e-05, "MEAN_MOTION_DOT": 4e-06, "MEAN_MOTION_DDOT": 0}, "tle": {"line1": "1 64900U 25156B   25360.99522562  .00000400  00000+0  21573-4 0  9999", "line2": "2 64900  97.4345  77.1581 0001293  66.9579 293.1793 15.20210664 23375"}}, "geometry": {"type": "Point", "coordinates": [-105.08020389733885, -18.255451719945523]}}, {"type": "Feature", "properties": {"norad_id": 64901, "name": "CO3D 4", "group": "resource", "lat": -17.383674088340786, "lon": -104.95444603509827, "alt_km": 509.6314319194753, "timestamp": "2025-12-27T05:29:38.852252+00:00", "meta": {"OBJECT_NAME": "CO3D 4", "OBJECT_ID": "2025-156C", "EPOCH": "2025-12-26T22:18:34.216416", "MEAN_MOTION": 15.20203934, "ECCENTRICITY": 0.00014365, "INCLINATION": 97.4337, "RA_OF_ASC_NODE": 77.0932, "ARG_OF_PERICENTER": 147.4182, "MEAN_ANOMALY": 212.7142, "EPHEMERIS_TYPE": 0, "CLASSIFICATION_TYPE": "U", "NORAD_CAT_ID": 64901, "ELEMENT_SET_NO": 999, "REV_AT_EPOCH": 2336, "BSTAR": 0.00029519926, "MEAN_MOTION_DOT": 6.329e-05, "MEAN_MOTION_DDOT": 0}, "tle": {"line1": "1 64901U 25156C   25360.92956269  .00006329  00000+0  29520-3 0  9993", "line2": "2 64901  97.4337  77.0932 0001436 147.4182 212.7142 15.20203934 23366"}}, "geometry": {"type": "Point", "coordinates": [-104.95444603509827, -17.383674088340786]}}]}